full_name,a,e,i,om,w,q,ad,H,diameter,ma,E_rad,E_deg
343158 Marsyas (2009 HC82),2.527,0.8068,154.35,295.5,299.0,0.488,4.57,16.31,,-92.62,-2.2461965111379962,-128.6975800452174
343166 (2009 SO103),2.004,0.6636,29.49,194.63,304.65,0.674,3.33,17.42,670.0,15.930000000000007,0.7111827606328385,40.74777064672432
344074 (1997 UH9),0.83,0.4748,25.49,42.38,180.93,0.436,1.22,19.01,,29.360000000000014,0.8776694620724678,50.28675598426969
344076 (1998 HJ3),1.985,0.7466,6.57,223.53,94.21,0.503,3.47,18.99,,98.51999999999998,2.2840869039412746,130.86853963693812
345705 (2006 VB14),0.767,0.4211,31.03,258.71,346.46,0.444,1.09,18.58,406.0,122.36000000000001,2.4152531570699414,138.38381235575537
345722 (2007 BG29),0.8326,0.3347,18.51,60.95,245.15,0.554,1.11,18.26,653.0,-39.129999999999995,-0.956447001631683,-54.800376521437585
345813 (2007 HX4),1.318,0.3319,56.55,41.67,14.55,0.88,1.75,17.8,1377.0,21.44999999999999,0.547004714094851,31.34106149139521
347634 (2001 SW269),1.122,0.5542,24.46,191.21,29.49,0.5,1.74,19.66,,43.25,1.286865714533088,73.73197424283296
348306 (2005 AY28),0.8727,0.5703,5.88,117.4,156.05,0.375,1.37,21.55,,-87.66,-2.03890468283292,-116.82063315578603
348314 (2005 BC),1.19,0.278,30.12,292.44,84.21,0.859,1.52,18.0,,-112.48,-2.1895979605234697,-125.45472196844744
348461 (2005 SH19),2.27,0.8555,48.02,18.33,158.47,0.328,4.21,17.09,,84.79000000000002,2.1809823648564715,124.96108469873724
348776 (2006 KZ37),1.285,0.2086,21.37,95.65,243.26,1.017,1.55,19.19,,-117.47,-2.216804023812199,-127.01351457205746
349063 (2006 XA),2.197,0.5473,10.32,252.73,301.04,0.995,3.4,17.45,,86.89999999999998,2.011660149152232,115.2596363610806
349068 (2006 YT13),1.323,0.4258,38.25,116.68,105.46,0.76,1.89,18.3,496.0,-75.84,-1.7431490518944912,-99.87508373578527
349074 (2007 BM8),1.341,0.7209,27.64,87.62,179.31,0.374,2.31,18.39,1081.0,163.05,2.969330129137125,170.13008438059296
349219 (2007 SV11),1.734,0.494,32.22,292.21,23.73,0.877,2.59,18.13,583.0,169.26,3.016016163886773,172.80499713394892
349507 (2008 QY),1.168,0.5816,13.56,1.88,254.94,0.489,1.85,18.5,,110.66000000000003,2.3465725931373944,134.448705907842
349925 (2009 WC26),2.172,0.6971,12.01,203.04,350.89,0.658,3.69,17.35,920.0,133.55,2.656152486192279,152.18632720199827
349928 (2009 WD106),1.934,0.7765,10.98,294.53,16.72,0.432,3.44,18.47,,-175.5,-3.097375933535096,-177.46656855695437
350523 (2000 EA14),1.118,0.2026,3.56,203.68,206.01,0.891,1.34,21.16,,-166.38,-2.9437089175469806,-168.66209709046603
350751 (2002 AW),1.072,0.2567,0.57,161.76,119.35,0.796,1.35,20.82,,-142.25,-2.612336487511742,-149.6758554024527
350988 (2003 GW),1.821,0.4763,49.43,183.15,90.62,0.953,2.69,16.84,,-158.0,-2.8805483173157094,-165.04326126570118
351278 (2004 SB20),1.183,0.4133,30.27,30.89,209.41,0.694,1.67,18.87,,65.00999999999999,1.5478295492439333,88.68410057731398
351331 (2004 XH29),1.381,0.503,22.63,232.04,334.12,0.686,2.08,18.91,,78.76999999999998,1.8572934024928072,106.41507328033038
351340 (2004 YC5),1.93,0.6171,11.39,334.55,27.17,0.739,3.12,18.12,,133.61,2.6326298351646993,150.83857857515886
351370 (2005 EY),2.511,0.892,17.25,62.41,185.82,0.271,4.75,17.18,,-128.17000000000002,-2.654498223401377,-152.09154492587405
351545 (2005 TE15),1.204,0.3435,13.13,10.84,241.22,0.79,1.62,19.81,,-27.75999999999999,-0.7078469072979872,-40.5566403295627
352102 (2007 AG12),2.09,0.6565,41.98,305.39,68.22,0.718,3.46,19.26,,-54.55,-1.6081198918701214,-92.13848275519226
353947 (1999 CT8),1.25,0.3941,44.49,337.12,40.07,0.757,1.74,18.77,,-45.860000000000014,-1.1620404774916773,-66.58001498364004
354101 (2001 YF1),1.486,0.3392,20.02,279.41,289.95,0.982,1.99,19.27,,175.94,3.0886739377100616,176.96798092283944
354182 (2002 DU3),1.145,0.2382,8.71,0.6,245.63,0.873,1.42,20.77,,-116.05,-2.2157996810732454,-126.9559699719308
354876 (2006 BG55),1.47,0.5986,12.46,140.88,167.68,0.59,2.35,18.45,,91.55000000000001,2.111161061351573,120.96061868780458
355046 (2006 SO19),1.243,0.2722,14.24,98.29,169.81,0.904,1.58,19.63,,-179.98,-3.141318273892155,-179.98427920134125
356394 (2010 QD2),2.009,0.7857,10.66,120.53,126.03,0.43,3.59,17.46,1071.0,-29.039999999999992,-1.2532659995088573,-71.80685237910222
356991 (1998 QA1),2.102,0.5343,8.19,298.85,333.18,0.979,3.22,19.07,,173.19,3.0640991056192983,175.55994676179603
357005 (1999 HA2),2.78,0.7027,15.22,147.18,344.48,0.827,4.73,17.99,,89.01999999999998,2.144056512823188,122.84538922230553
357022 (1999 YG3),1.285,0.3296,34.52,293.25,250.24,0.861,1.71,19.07,432.0,49.28,1.1626204290909707,66.61324376260143
357024 (1999 YR14),1.651,0.4001,3.73,2.97,9.71,0.991,2.31,19.47,255.0,-68.48,-1.5951825107335473,-91.3972254181144
357028 (2000 EJ26),1.382,0.6149,9.22,10.41,285.97,0.532,2.23,19.45,,50.099999999999994,1.4871606167170737,85.20802679596096
357439 (2004 BL86),1.502,0.4025,23.79,126.65,311.54,0.898,2.11,19.29,,154.99,2.828902599445678,162.08417960182499
357594 (2004 XL35),1.355,0.2784,27.3,73.75,356.21,0.978,1.73,19.63,,-79.38,-1.6626682750799286,-95.2638748923765
357618 (2005 EM30),1.203,0.3367,53.08,1.8,293.05,0.798,1.61,19.07,,-42.09,-1.0218370971624249,-58.54695301730638
357621 (2005 EG94),1.604,0.4646,10.74,332.0,38.43,0.859,2.35,18.83,,31.610000000000014,0.9218571811940393,52.81852579624524
357622 (2005 EY95),1.084,0.5383,3.17,72.86,342.14,0.5,1.67,20.32,,6.990000000000009,0.260802287231772,14.94287034573918
358453 (2007 EH88),1.123,0.4413,12.08,3.76,324.36,0.627,1.62,19.83,,-65.12,-1.577847438628166,-90.40399894892109
358471 (2007 NS4),1.875,0.5972,5.78,10.94,47.6,0.755,2.99,19.2,,-173.19,-3.0671511495734447,-175.73481599925708
358744 (2008 CR118),1.841,0.5123,3.92,121.42,157.25,0.898,2.78,18.99,,158.06,2.88746181634214,165.43937558158348
359170 (2009 CN5),1.545,0.4653,11.9,349.69,53.27,0.826,2.26,19.95,,123.05000000000001,2.445860546699611,140.13748660344788
359242 (2009 FT),1.572,0.7241,14.56,90.65,220.66,0.434,2.71,19.02,,-55.41,-1.6863573724400955,-96.62116019158856
359369 (2009 YG),2.152,0.6956,3.39,138.59,67.74,0.655,3.65,18.52,,-177.37,-3.1145199597705786,-178.4488489041091
360191 (1988 TA),1.54,0.4787,2.53,194.6,105.34,0.803,2.28,21.08,400.0,-4.439999999999998,-0.14815546994110587,-8.488683139402696
360433 (2002 JR9),2.391,0.6362,9.8,122.46,204.36,0.87,3.91,17.79,,-68.45,-1.8123998093419076,-103.84285986560637
360502 (2003 EO16),0.9344,0.2495,13.23,177.9,167.93,0.701,1.17,20.77,,52.69999999999999,1.1472410688416597,65.73207132870465
361518 (2007 FD),2.06,0.6019,6.95,222.48,183.57,0.82,3.3,17.13,,16.080000000000013,0.6401950298135028,36.68047327356561
361538 (2007 JZ20),1.311,0.335,40.48,200.48,139.02,0.872,1.75,18.67,479.0,-121.93,-2.3632770735667203,-135.40580213540125
361689 (2007 VY7),1.816,0.5034,6.36,108.01,9.63,0.902,2.73,19.46,,-72.55,-1.760596310275437,-100.8747380050877
361754 (2007 YV29),1.373,0.3568,21.88,59.3,321.87,0.883,1.86,19.18,,-93.27,-1.9582239938182873,-112.19797018704007
361861 (2008 ED69),2.909,0.7396,36.38,149.49,173.25,0.758,5.06,16.98,,4.22999999999999,0.2738320396819522,15.68942016923475
362310 (2009 UM3),2.442,0.7856,12.75,162.15,129.1,0.523,4.36,18.01,,-80.35,-2.085996535198545,-119.51879754578951
363024 (1998 OK1),1.356,0.4292,13.99,109.64,298.65,0.774,1.94,19.42,558.0,-129.39,-2.511258367393933,-143.88450571858587
363027 (1998 ST27),0.8198,0.5298,21.05,197.51,322.44,0.386,1.25,19.58,578.0,-91.59,-2.0649638369822902,-118.31371270622577
363067 (2000 CO101),1.076,0.0901,15.32,353.02,64.96,0.979,1.17,19.21,,-61.69,-1.1592713360411755,-66.42135486565155
363071 (2000 GD147),1.893,0.5501,7.09,357.37,182.46,0.852,2.93,20.24,,121.82999999999998,2.4690389924967677,141.4655137232977
363116 (2001 GQ2),1.215,0.5031,21.82,37.1,280.3,0.604,1.83,20.32,,-92.26,-2.0554110647456887,-117.76637917441876
363267 (2002 GS),1.353,0.4039,19.76,34.69,264.21,0.806,1.9,20.05,,128.8,2.4922178072745145,142.79356198417804
363298 (2002 KL3),1.951,0.7482,20.77,73.12,293.41,0.491,3.41,18.51,,8.159999999999997,0.5032706939072151,28.835286713503734
363305 (2002 NV16),1.239,0.2209,3.45,182.74,179.77,0.965,1.51,21.42,,118.30000000000001,2.23822311928826,128.24073834382352
363344 (2002 QC7),1.169,0.196,26.81,336.01,184.46,0.94,1.4,19.98,,126.37,2.3456228831323807,134.39429153279332
363505 (2003 UC20),0.7812,0.3369,3.78,187.92,60.17,0.518,1.04,18.47,1876.0,-62.2,-1.4186004130030538,-81.2798164805905
363599 (2004 FG11),1.586,0.724,3.13,83.44,228.81,0.438,2.73,21.05,152.0,86.81,2.1291610835193557,121.99194398916046
363617 (2004 KK17),1.467,0.5759,41.53,103.65,31.57,0.622,2.31,18.38,,-105.27,-2.275886530270695,-130.3986928351837
363734 (2004 XN50),1.681,0.7787,3.31,62.35,253.45,0.372,2.99,18.83,,56.27000000000001,1.748529855213976,100.18338105638173
363790 (2005 JE46),1.903,0.5522,8.27,238.33,114.76,0.852,2.95,17.85,,60.68000000000001,1.610823489005872,92.29338746057442
363814 (2005 ND7),1.964,0.4827,52.58,110.06,241.48,1.016,2.91,17.97,1105.0,-57.81,-1.4901042107143692,-85.37668230860606
363831 (2005 PY16),1.976,0.5252,6.42,159.29,193.53,0.938,3.01,19.35,371.0,-70.59,-1.7489182991584178,-100.20563725497566
364136 (2006 CJ),0.6766,0.7549,10.22,303.21,29.69,0.166,1.19,20.19,,-163.09,-2.9730722481183096,-170.34449200465065
364877 (2008 EM9),1.959,0.8525,9.44,229.68,181.79,0.289,3.63,17.34,786.0,5.090000000000003,0.49018490579080926,28.08552628283124
365014 (2008 OX2),1.048,0.602,6.65,220.1,252.05,0.417,1.68,20.09,,121.04000000000002,2.4816266862126026,142.1867354470184
365071 (2009 AV),1.03,0.0739,45.87,150.73,322.12,0.954,1.11,18.18,674.0,-82.9,-1.520685183186078,-87.12884296464073
365246 (2009 NE),2.677,0.8647,35.01,230.4,198.9,0.362,4.99,15.87,,64.72,1.9369555626676689,110.97937884524504
365424 (2010 KX7),0.9893,0.1709,21.49,46.45,61.94,0.82,1.16,21.91,212.0,-167.47,-2.9546633876272077,-169.28974199286537
365449 (2010 NJ1),0.9685,0.5406,11.22,128.23,358.58,0.445,1.49,20.28,215.0,-51.099999999999994,-1.4268740105207005,-81.75385869974156
366746 (2004 LJ),1.087,0.4615,18.28,246.69,256.1,0.585,1.59,20.16,,-139.7,-2.6543110780440644,-152.08082228674456
